{"fetched_at":"2026-03-30T20:46:33Z","count":15425,"tles":[{"name":"STARLINK-30959","line1":"1 58442U 23183F   26087.87756901 -.00019777  00000+0 -72749-3 0  9990","line2":"2 58442  43.0031 292.8468 0001081 220.6316 139.4455 15.26833249129674","category":"Starlink"}]}